[Satellite]
VERSION=1.1
NAME=STARLINK-5153
NICKNAME=STARLINK-5153
TLE1=1 54088U 22136AP  22321.58334491  .00095917  00000+0  68265-3 0  9996
TLE2=2 54088  53.2153   9.4513 0003895   8.5405 326.9661 15.73103819  4909
STATUS=0
